IRIDIUM 57              
1 25273U 98019B   24196.19679044  .00000623  00000+0  21089-3 0  9991
2 25273  86.3957 286.8078 0002228  94.8040 265.3411 14.35280765376501
IRIDIUM 63              
1 25286U 98021B   24195.79195210  .00000469  00000+0  15528-3 0  9990
2 25286  86.3978 223.8782 0002119  90.3753 269.7687 14.35829075375271
IRIDIUM 69              
1 25319U 98026A   24196.19906658  .00000749  00000+0  23146-3 0  9999
2 25319  86.3964 238.0115 0004423  75.3226 284.8463 14.40077695374648
IRIDIUM 71              
1 25320U 98026B   24195.84592837  .00000676  00000+0  20698-3 0  9990
2 25320  86.3964 232.9164 0004301 107.0107 253.1564 14.40385356374875
IRIDIUM 73              
1 25344U 98032C   24196.47983337  .00001029  00000+0  25733-3 0  9990
2 25344  86.4442 190.0581 0002912  83.4585 276.6952 14.50625704381888
IRIDIUM 82              
1 25467U 98051A   24196.16701886  .00021368  00000+0  10398-2 0  9998
2 25467  86.3730 272.9628 0127116 121.3016 240.0743 15.11314656372567
